1 45208U 20012AG  22365.41468763  .00003812  00000-0  28067-3 0  9991
2 45208  52.9970 213.2527 0001319 111.0272 249.0857 15.05579169159517
1 45208U 20012AG  22365.74659960  .00005439  00000-0  39207-3 0  9993
2 45208  52.9968 211.7626 0001344 110.7683 249.3449 15.05585968159566
1 45208U 20012AG  23001.01212788  .00005712  00000-0  41072-3 0  9991
2 45208  52.9968 210.5706 0001328 110.7976 249.3155 15.05591571158727
1 45208U 20012AG  23001.27765543  .00005799  00000-0  41663-3 0  9992
2 45208  52.9968 209.3785 0001327 110.9114 249.2016 15.05595846159641
1 45208U 20012AG  23001.74233808 -.00000851  00000-0 -39235-4 0  9997
2 45208  52.9968 207.2924 0001343 110.6939 249.4193 15.05579392159717
1 45208U 20012AG  23001.80872055 -.00000911  00000-0 -43373-4 0  9992
2 45208  52.9967 206.9944 0001346 110.6112 249.5020 15.05579472158842
1 45208U 20012AG  23002.53893081  .00000314  00000-0  40742-4 0  9997
2 45208  52.9976 203.7162 0001385 113.1796 246.9338 15.05584019159834
1 45208U 20012AG  23002.80446077  .00000125  00000-0  27726-4 0  9993
2 45208  52.9976 202.5241 0001379 113.0542 247.0591 15.05583779159879
1 45208U 20012AG  23002.87084258  .00000130  00000-0  28121-4 0  9995
2 45208  52.9975 202.2260 0001374 112.5306 247.5828 15.05584460159004
1 45208U 20012AG  23003.33551804 -.00000105  00000-0  11991-4 0  9993
2 45208  52.9975 200.1399 0001429 111.8488 248.2652 15.05587571159951
1 45208U 20012AG  23003.93295960  .00001477  00000-0  12053-3 0  9998
2 45208  52.9975 197.4576 0001403 112.4293 247.6844 15.05584313159169
1 45208U 20012AG  23004.46401614  .00001645  00000-0  13202-3 0  9996
2 45208  52.9975 195.0734 0001392 112.6214 247.4921 15.05589821160122
1 45208U 20012AG  23004.79592507  .00001880  00000-0  14810-3 0  9991
2 45208  52.9975 193.5833 0001387 112.7452 247.3683 15.05592843160171
1 45208U 20012AG  23004.79592507  .00001880  00000-0  14810-3 0  9991
2 45208  52.9975 193.5833 0001387 112.7452 247.3683 15.05592843159292
1 45208U 20012AG  23005.52612417  .00001887  00000-0  14857-3 0  9994
2 45208  52.9977 190.3049 0001367 113.7668 246.3463 15.05598626160287
1 45208U 20012AG  23005.79165553  .00001237  00000-0  10403-3 0  9999
2 45208  52.9973 189.1123 0001495 113.6918 246.4226 15.05595173160328
1 45208U 20012AG  23006.18994553  .00001196  00000-0  10118-3 0  9990
2 45208  52.9967 187.3235 0001517 114.8856 245.2290 15.05598384159507
1 45208U 20012AG  23006.45548185  .00000318  00000-0  40970-4 0  9991
2 45208  52.9981 186.1332 0001312 114.2253 245.8872 15.05591158159544
1 45208U 20012AG  23006.58826143 -.00009252  00000-0 -61705-3 0  9994
2 45208  52.9963 185.5365 0001497 108.4565 251.6585 15.05554304159568
1 45208U 20012AG  23006.92017339 -.00006564  00000-0 -43199-3 0  9991
2 45208  52.9975 184.0461 0001390 115.9377 244.1754 15.05560906160492
1 45208U 20012AG  23006.92017339 -.00006564  00000-0 -43199-3 0  9991
2 45208  52.9975 184.0461 0001390 115.9377 244.1754 15.05560906159614
1 45208U 20012AG  23007.18569819 -.00003664  00000-0 -23252-3 0  9991
2 45208  52.9985 182.8598 0000824 185.0605 175.0375 15.05573547160534
1 45208U 20012AG  23007.45123176 -.00001811  00000-0 -10515-3 0  9993
2 45208  52.9964 181.6630 0001187 104.8578 255.2542 15.05577337159699
1 45208U 20012AG  23007.84952721 -.00000018  00000-0  17953-4 0  9993
2 45208  52.9970 179.8753 0001266 101.3010 258.8120 15.05581651160633
1 45208U 20012AG  23008.51336091  .00008586  00000-0  60782-3 0  9998
2 45208  52.9968 176.8942 0001423 106.1576 253.9568 15.05573894160735
1 45208U 20012AG  23008.51336091  .00008586  00000-0  60782-3 0  9998
2 45208  52.9968 176.8942 0001423 106.1576 253.9568 15.05573894159856
1 45208U 20012AG  23008.84527181  .00008486  00000-0  60081-3 0  9997
2 45208  52.9967 175.4038 0001479 105.2631 254.8520 15.05582500160785
1 45208U 20012AG  23009.44270308  .00007002  00000-0  49893-3 0  9991
2 45208  52.9969 172.7219 0001351 106.2652 253.8485 15.05602981160876
1 45208U 20012AG  23009.57546559  .00007884  00000-0  55924-3 0  9999
2 45208  52.9967 172.1257 0001356 105.9767 254.1370 15.05607173160019
1 45208U 20012AG  23009.70822801  .00008529  00000-0  60335-3 0  9990
2 45208  52.9967 171.5297 0001337 106.4894 253.6241 15.05610726160910
1 45208U 20012AG  23010.50481575 -.00001431  00000-0 -79006-4 0  9992
2 45208  52.9966 167.9530 0001400 103.8129 256.3015 15.05592486160158
1 45208U 20012AG  23010.70396212  .00000466  00000-0  51139-4 0  9999
2 45208  52.9969 167.0593 0001488 106.0367 254.0785 15.05594403161067
1 45208U 20012AG  23011.56692725  .00008432  00000-0  59675-3 0  9995
2 45208  52.9974 163.1863 0001190  97.9187 262.1936 15.05606277161193
1 45208U 20012AG  23011.69969255  .00004788  00000-0  34740-3 0  9990
2 45208  52.9972 162.5890 0001195 103.0459 257.0663 15.05596748160336
1 45208U 20012AG  23011.83245645  .00002460  00000-0  18787-3 0  9994
2 45208  52.9971 161.9937 0001164 102.3429 257.7689 15.05595976161232
1 45208U 20012AG  23012.76181550  .00001715  00000-0  13683-3 0  9993
2 45208  52.9963 157.8223 0001324 104.3267 255.7868 15.05584376161379
1 45208U 20012AG  23012.76181550  .00001715  00000-0  13683-3 0  9993
2 45208  52.9963 157.8223 0001324 104.3267 255.7868 15.05584376160491
1 45208U 20012AG  23013.55839244  .00003552  00000-0  26271-3 0  9999
2 45208  52.9972 154.2455 0001197  96.1894 263.9230 15.05599245160610
1 45208U 20012AG  23014.08945130  .00002376  00000-0  18212-3 0  9999
2 45208  52.9966 151.8628 0001259  74.1734 285.9393 15.05597017160693
1 45208U 20012AG  23014.42138307 -.00004842  00000-0 -31357-3 0  9994
2 45208  52.9981 150.3719 0001259  80.7230 279.3900 15.05560392160742
1 45208U 20012AG  23014.75329561 -.00005452  00000-0 -35545-3 0  9995
2 45208  52.9963 148.8799 0001702  75.4308 284.6869 15.05562406160798
1 45208U 20012AG  23015.54989260  .00005848  00000-0  42025-3 0  9999
2 45208  52.9957 145.3043 0001602  68.8728 291.2431 15.05575812160914
1 45208U 20012AG  23015.61627873  .00014496  00000-0  10121-2 0  9996
2 45208  52.9958 145.0065 0001432  68.2816 291.8324 15.05575587161804
1 45208U 20012AG  23015.74904360  .00020575  00000-0  14268-2 0  9990
2 45208  52.9959 144.4105 0001529  67.6862 292.4288 15.05588235161826
1 45208U 20012AG  23016.61201862  .00017289  00000-0  12024-2 0  9990
2 45208  52.9955 140.5361 0001718  78.6724 281.4456 15.05593394161953
1 45208U 20012AG  23016.74478171  .00012708  00000-0  88934-3 0  9998
2 45208  52.9967 139.9402 0001567  75.6210 284.4952 15.05598078161973
1 45208U 20012AG  23016.74478171  .00012708  00000-0  88934-3 0  9998
2 45208  52.9967 139.9402 0001567  75.6210 284.4952 15.05598078161096
1 45208U 20012AG  23017.60776122  .00010074  00000-0  70943-3 0  9996
2 45208  52.9967 136.0659 0001065  66.4225 293.6874 15.05586850162108
1 45208U 20012AG  23017.60776122  .00010074  00000-0  70943-3 0  9996
2 45208  52.9967 136.0659 0001065  66.4225 293.6874 15.05586850161220
1 45208U 20012AG  23018.27158946  .00014460  00000-0  10093-2 0  9990
2 45208  52.9977 133.0868 0001007  62.8908 297.2183 15.05589446161322
1 45208U 20012AG  23018.60349736  .00017733  00000-0  12323-2 0  9990
2 45208  52.9980 131.5971 0000820  48.6157 311.4901 15.05606271162250
1 45208U 20012AG  23019.26732150  .00002845  00000-0  21426-3 0  9992
2 45208  52.9967 128.6177 0001814  85.2029 274.9166 15.05592631162350
1 45208U 20012AG  23019.26732150  .00002845  00000-0  21426-3 0  9992
2 45208  52.9967 128.6177 0001814  85.2029 274.9166 15.05592631161472
1 45208U 20012AG  23019.99752748  .00001540  00000-0  12483-3 0  9991
2 45208  52.9977 125.3390 0001230  94.2001 265.9127 15.05588470161581
1 45208U 20012AG  23020.46220612  .00001045  00000-0  90835-4 0  9993
2 45208  52.9987 123.2536 0001391  95.1893 264.9253 15.05588058162535
1 45208U 20012AG  23020.99326675  .00002990  00000-0  22421-3 0  9992
2 45208  52.9989 120.8700 0001495  79.4428 280.6728 15.05588496161736
1 45208U 20012AG  23022.52006364  .00000703  00000-0  67366-4 0  9991
2 45208  52.9981 114.0148 0001341  97.2234 262.8906 15.05589774161967
1 45208U 20012AG  23023.18389265  .00001828  00000-0  14459-3 0  9991
2 45208  52.9976 111.0357 0001536  87.6032 272.5131 15.05584713162063
1 45208U 20012AG  23024.24601363  .00001546  00000-0  12525-3 0  9994
2 45208  52.9977 106.2665 0001306  98.5727 261.5409 15.05583790162227
1 45208U 20012AG  23025.50727650  .00003309  00000-0  24604-3 0  9992
2 45208  52.9977 100.6043 0001184 104.2472 255.8647 15.05594613163295
1 45208U 20012AG  23025.50727650  .00003309  00000-0  24604-3 0  9992
2 45208  52.9977 100.6043 0001184 104.2472 255.8647 15.05594613162418
1 45208U 20012AG  23026.50301691  .00001359  00000-0  11238-3 0  9998
2 45208  52.9988  96.1348 0001252  94.1869 265.9262 15.05587364163444
1 45208U 20012AG  23026.50301691  .00001359  00000-0  11238-3 0  9998
2 45208  52.9988  96.1348 0001252  94.1869 265.9262 15.05587364162566
1 45208U 20012AG  23027.36598901  .00000767  00000-0  71806-4 0  9995
2 45208  52.9981  92.2592 0001187  94.3029 265.8095 15.05588810163576
1 45208U 20012AG  23027.89705035 -.00000185  00000-0  64378-5 0  9993
2 45208  52.9981  89.8748 0001158  91.7327 268.3794 15.05586555163658
1 45208U 20012AG  23028.16258626  .00000822  00000-0  75557-4 0  9990
2 45208  52.9984  88.6831 0001212  81.1128 278.9997 15.05577704162819
1 45208U 20012AG  23028.42811359  .00000870  00000-0  78839-4 0  9996
2 45208  52.9979  87.4906 0001220  81.4261 278.6866 15.05583953163730
1 45208U 20012AG  23028.89279011  .00001655  00000-0  13270-3 0  9999
2 45208  52.9980  85.4046 0001221  81.4489 278.6637 15.05586471163800
1 45208U 20012AG  23029.22469663 -.00001758  00000-0 -10143-3 0  9993
2 45208  52.9980  83.9143 0001359  79.5328 280.5813 15.05597070162975
1 45208U 20012AG  23029.42384685  .00003420  00000-0  25366-3 0  9994
2 45208  52.9980  83.0204 0001289  80.3099 279.8034 15.05592876163887
1 45208U 20012AG  23030.22044323  .00001342  00000-0  11126-3 0  9996
2 45208  52.9979  79.4440 0001324  80.6229 279.4909 15.05580304163121
1 45208U 20012AG  23030.41958909  .00001587  00000-0  12807-3 0  9999
2 45208  52.9980  78.5500 0001325  81.8945 278.2193 15.05583920164039
1 45208U 20012AG  23030.81788388  .00000273  00000-0  37885-4 0  9990
2 45208  52.9980  76.7620 0001342  81.3762 278.7378 15.05583882164096
1 45208U 20012AG  23031.21617385 -.00003485  00000-0 -22001-3 0  9996
2 45208  52.9986  74.9736 0001436  82.5079 277.6072 15.05602756164156
1 45208U 20012AG  23031.21617385 -.00003485  00000-0 -22001-3 0  9996
2 45208  52.9986  74.9736 0001436  82.5079 277.6072 15.05602756163278
1 45208U 20012AG  23031.88000313  .00001217  00000-0  10269-3 0  9998
2 45208  52.9988  71.9936 0001307  93.0197 267.0940 15.05585547164258
